#dP2022 12 26  0  0  0.00000000      96 __u+U ITR14 FIT  IAC
## 2242  86400.00000000   900.00000000 59939 0.0000000000000
+  127   C01C02C03C04C05C06C07C08C09C10C11C12C13C14C16C19C20
+        C21C22C23C24C25C26C27C28C29C30C32C33C34C36C37C38C39
+        C40C41C42C43C44C45C46C60E01E02E03E04E05E07E08E09E10
+        E11E12E13E14E15E18E19E21E24E25E26E27E30E31E33E34E36
+        G01G02G03G04G05G06G07G08G09G10G11G12G13G14G15G16G17
+        G18G19G20G21G22G23G24G25G26G27G29G30G31G32J02J03J04
+        J07R01R02R03R04R05R06R07R08R09R10R11R12R13R14R15R16
+        R17R18R19R20R21R23R24R25  0  0  0  0  0  0  0  0  0
++        18 17 17 17 16  9  9 10  9  9  9  9  9  9  9  7  7
++         7  7  7  7  7  7  7  7  7  7  7  7  7  7  7  8  8
++         8  7  7  7  8  7  7 17  5  4  4  4  4  5  5  4  4
++         4  4  5  5  4  4  4  5  4  4  5  4  4  4  4  4  4
++         4  4  4  4  4  4  4  4  4  4  4  4  4  4  4  4  4
++         4  4  4  4  4  4  4  4  4  4  4  4  4  4  8  8  9
++        17  7  6  6  6  6 15  6  6  6 15  6  6  7  6  6  8
++         6  6  7  8  6 15  6  9  0  0  0  0  0  0  0  0  0
%c M  cc GPS ccc cccc cccc cccc cccc ccccc ccccc ccccc ccccc
%c cc cc ccc ccc cccc cccc cccc cccc ccccc ccccc ccccc ccccc
%f  0.0000000  0.000000000  0.00000000000  0.000000000000000
%f  0.0000000  0.000000000  0.00000000000  0.000000000000000
%i    0    0    0    0      0      0      0      0         0
%i    0    0    0    0      0      0      0      0         0
/* INFORMATION & ANALYSIS CENTER (IAC)            RAPID DATA
/* S/V CLOCKS ARE ALIGNED TO GNSS TIME                      
/* G:C1WC2W R:C1PC2P E:C1XC5X C:C2IC6I J:C1CC2S             
/* PCV:IGS20_2239 OL/AL:FES2004  NONE     YN ORB:CoN CLK:CoN
*  2022 12 26  7 30  0.00000000
PC01 -34318.883224  24507.555606   -986.156945    925.546445
PC02   4429.914657  41923.368228   -517.142870     74.741860
PC03 -14742.450561  39489.707472  -1246.755720    -10.605252
PC04 -39632.752468  14445.394583   -452.295587     37.793701
PC05  21970.616429  36008.430843   -386.520429    -21.855274
PC06 -17388.738753  30761.509766  22791.213088    212.205169
PC07  -3969.569284  40070.149577  12810.478688    107.469935
PC08  -2682.108949  21331.130885 -36245.941649    525.205236
PC09 -10060.666919  29488.870187  28536.607004   -774.076425
PC10    318.203016  41635.062106   8443.949070     44.496823
PC11 -11438.291130  21404.392830 -13721.953977   -214.331399
PC12 -22345.371161  16424.785744   3201.416122    364.784579
PC13   3775.861289  24451.140254 -33914.691082    167.591947
PC14   -746.023809  26408.189681  -9049.087525    302.944394
PC16 -20941.519197  30513.907265  20130.741376     94.627685
PC19  -5850.052379 -27279.640163   -109.381253   -900.814843
PC20   6146.549481 -22324.914335  15569.241037    792.009888
PC21 -15345.436308   3506.061283 -23030.409905   -922.415005
PC22 -15043.377233 -16703.730796 -16528.826337   -719.731383
PC23  23694.385710  13044.318776   6841.698930   -870.881140
PC24 -13734.111909  11637.885640  21312.499790   -624.901411
PC25   8834.999627  17554.760333  19790.120100     45.400989
PC26 -25602.690379    550.345953  11117.191985    -55.231976
PC27  23474.235634 -10272.478100 -11086.560703     71.941015
PC28  16540.814296   5611.782788 -21755.952020     51.581284
PC29    446.977732 -19521.561377  19935.076437     58.821514
PC30  17102.558605 -21375.958027   5473.758898      1.253146
PC32  15368.477953  -3507.615768  23039.469618   -670.240953
PC33   5970.945643  27264.423789     36.267747   -888.469458
PC34 -16289.794586  21656.299844  -6620.622942     69.481082
PC36  -7749.658577 -17747.274203 -20081.317569   -740.290170
PC37  26025.536629   1019.958504  -9972.331813   -868.320226
PC38 -11082.627901  20277.741559 -35250.558459     47.578183
PC39 -23210.000105  31368.857416  15687.232634     -1.181150
PC40  -9376.200268  37411.278033  17279.142449    -11.041583
PC41  14999.369103  17169.773309  16139.367494   -421.962497
PC42  -6882.343718  21505.280121 -16366.500375   -924.546619
PC43  -1173.105305  19932.676481 -19490.249367     32.055949
PC44 -23098.784618  10900.295632  11196.647630    157.042866
PC45 -23925.318920 -12839.691076  -6513.669549    -39.469513
PC46  11790.915123 -12564.657600 -21950.156417    -22.106398
PC60   7298.757712  41501.759039  -1433.149633     -0.638732
PE01  18151.208869  23285.973313   1999.731983   -584.271001
PE02 -18345.479923 -23186.510699  -1690.002844     10.847147
PE03  -8673.408715 -19373.089669 -20637.008819   -633.565479
PE04  17821.083334   -694.749799  23625.705197    -22.289045
PE05   5805.666339 -28518.017588  -5421.187848   -111.406723
PE07 -16689.581758  20857.216291 -12755.251381    -10.161982
PE08 -17672.509056    700.538815 -23741.152232     -8.936892
PE09  16635.156722 -20756.526453  12974.185002   -777.365648
PE10  28747.204681  -6841.568958   1663.986605   -500.497449
PE11  24039.140213 -12552.690946  11873.602562    174.389287
PE12  28562.929164   -451.356733  -7780.039497   -354.552089
PE13 -24611.715382  12145.271508 -11073.482906    430.232648
PE14  -6501.393281  29853.512507  -8976.651575     95.289080
PE15 -28463.999396    304.228248   8124.740786    698.425467
PE18   9506.299912 -22292.095339   2179.740780   -584.096901
PE19   6688.537873  21468.657667  19245.640426  -3648.181776
PE21   4222.815923  23378.722059  17646.967889   -502.533007
PE24  13974.584665  -9397.059136 -24356.521534  -1022.623821
PE25  -3954.933015 -23281.969246 -17851.634318   -595.779988
PE26  -5416.382323  16852.603352 -23714.073651  -1870.294339
PE27 -13257.124443  10196.447878  24423.133300   -472.262081
PE30 -22846.379114  -9593.695592  16198.592716  -1108.542797
PE31  22738.562207   8837.274577 -16750.212213   -511.644007
PE33  15500.427422  11618.882326 -22372.654641   -455.176600
PE34 -15691.163286 -11517.227199  22304.616826    -21.553971
PE36   6379.301582 -16740.620430  23572.581051   -480.952971
PG01   7710.481333  13626.420580 -21821.097981    232.668367
PG02 -10985.719391 -12685.365859  21174.010145   -630.988598
PG03  11552.758719  23041.936207  -6763.669968   -374.782418
PG04   2623.324778  20894.076345  16124.915582    -61.347933
PG05   -225.040250 -19612.747556  17681.847462   -109.524699
PG06  25501.917814  -5996.511750   4707.470298    547.410076
PG07  21489.430349   7814.142911  14339.228308    268.855065
PG08  -5171.126724  25056.689081  -6388.707268   -100.488710
PG09  11536.009256  11205.140638  21051.641691   -247.289931
PG10 -18904.272920  -4929.507478 -17974.528490    -17.718861
PG11  17779.329956 -12053.626883  15608.652141    -64.662183
PG12  -8977.741711 -23885.810820  -7836.449048   -320.437449
PG13  13051.988960 -23000.303632   -935.680634    448.468720
PG14  19500.582052   7283.354528 -16557.729494    -61.559849
PG15   1665.936075 -25547.686461  -6948.244301     -0.871580
PG16  -5362.856847  16791.717364  19428.574869   -525.447786
PG17  16642.692811  -2886.888094 -20081.838080    688.744470
PG18 -23096.485201  -5816.433359  11907.414249    -73.734033
PG19  18284.928244 -13237.527205 -14008.608704    255.561748
PG20  10074.021734 -11853.439180  21557.880475    461.138472
PG21  -1235.670287  15248.210200 -21020.922878    152.915332
PG22 -17308.624316  16576.850510 -10829.781481    392.538559
PG23 -20066.728270 -14541.503730  -9751.558293      0.835556
PG24  -3774.048969 -15523.162950 -21567.950852     -1.421470
PG25 -16690.664987 -20827.076128    838.879130    405.528768
PG26 -14431.213822   7036.260592  21087.608856    239.176560
PG27 -12706.208843  22649.004912   4170.145986    143.349742
PG29  -8489.149448 -14045.623971  20821.413305   -576.495162
PG30  26513.533464   -491.379504   3204.878516   -534.696998
PG31 -25244.143644   6657.068225   5902.697419   -204.408992
PG32 -17129.759663   6349.260007 -19051.827519   -342.648034
PJ02 -26077.057931  21823.032200  29978.787424     -0.403759
PJ03 -34250.536692  22921.905753  -3848.192643     -7.512978
PJ04 -19628.630868  28304.266725 -19212.639658    116.367351
PJ07 -25401.907261  33646.198215     20.851653     -0.031048
PR01 -10709.776438   4190.899320 -22770.934436     20.190565
PR02  -5610.090466  21378.994417 -12629.849838    -23.350480
PR03   2708.775914  24931.175348   4522.636338     69.755527
PR04   9029.512898  14638.970395  18854.514708    169.995103
PR05  10619.197859  -3641.952804  22915.115398    105.175237
PR06   4479.401690 -22244.970866  11667.681155    -87.139941
PR07  -2981.794772 -24823.265791  -5168.670965     46.811881
PR08  -9194.268663 -14529.529586 -18803.276991    -68.695350
PR09   7024.832213  -9065.474296 -22773.963075     95.088631
PR10  -9002.849387 -14878.714506 -18707.842363    -88.990477
PR11 -21590.075571 -13158.924378  -3323.071754     11.999996
PR12 -20568.474331  -3017.955174  14816.760893     23.894315
PR13  -8511.178358   7847.763607  22710.199308    -30.312919
PR14  10432.755034  15235.768461  17610.443245     24.144685
PR15  21812.105422  13031.278581   2260.661227     92.118386
PR16  20718.896661   3171.195510 -14552.993540      9.143729
PR17  -2347.513937  12990.888275 -21819.094401    590.207695
PR18  13336.790252   3343.557182 -21475.510075     58.668393
PR19  21999.285894  -6492.782057 -11149.552697   -215.921558
PR20  18489.225711 -14913.027997   9365.918001    -84.658956
PR21    756.604200 -12182.627550  22400.314180   -360.436380
PR23 -22640.614929   9828.576248   6433.054882    -66.866921
PR24 -17534.137572  15702.787978  -9825.164425    135.275008
PR25   3158.881796 -13242.600963  21576.196138     49.892831
EOF
